IDEFIX & ARIANE 42P R/B 
1 27422U 02021B   25364.83320149  .00000622  00000+0  25304-3 0  9998
2 27422  98.5806 299.2912 0012516  34.4170 325.7821 14.30966059234171
AQUA                    
1 27424U 02022A   25364.96158943  .00001951  00000+0  40088-3 0  9998
2 27424  98.4061 326.1389 0001917  95.3187 305.7939 14.61780362258696
CZ-4B R/B               
1 27432U 02024C   25365.10583833  .00000129  00000+0  89292-4 0  9993
2 27432  98.8972  53.8111 0049620 216.9578 197.1007 14.14532270219546
MIDORI II (ADEOS-II)    
1 27597U 02056A   25365.12760411  .00000643  00000+0  27082-3 0  9990
2 27597  98.7661 318.1828 0001105 139.6211 220.5053 14.29221529200501
H-2A R/B                
1 27601U 02056E   25364.89564140  .00000791  00000+0  29186-3 0  9991
2 27601  98.3089 322.9320 0070551   7.5973  51.5571 14.33695501204259
CZ-4B R/B               
1 28059U 03049C   25364.95790047  .00000849  00000+0  20599-3 0  9999
2 28059  98.6802 352.2113 0049346  81.6302 279.0484 14.54930185176606
CZ-2C R/B               
1 28222U 04012C   25365.12948196  .00061696  00000+0  84458-3 0  9993
2 28222  97.7393  59.2865 0016708 199.4117 160.6503 15.57045475193585
SL-16 R/B               
1 28353U 04021B   25365.14845212  .00000419  00000+0  24310-3 0  9992
2 28353  71.0009  16.3324 0004241 168.9386 191.1830 14.14584077113145
CZ-4B R/B               
1 28415U 04035C   25365.10009869  .00014833  00000+0  54182-3 0  9997
2 28415  97.3593  35.2013 0032171 209.3657 150.5776 15.27709098169430
CZ-2C R/B               
1 28480U 04046B   25364.76921186  .00000528  00000+0  21126-3 0  9995
2 28480  98.1998 279.0277 0139547 359.1967   0.8970 14.26954016 98673
ARIANE 5 R/B            
1 28499U 04049H   25365.04718227  .00002503  00000+0  28224-3 0  9991
2 28499  98.2526 165.9865 0083783 212.8700 146.7288 14.85069424135609
CZ-2D R/B               
1 28738U 05024B   25365.01263264  .00049260  00000+0  74955-3 0  9997
2 28738  97.3623  12.9524 0003084 278.6684  81.4220 15.54377637129095
