CCSDS_OMM_VERS = 2.0
CREATION_DATE  = 
ORIGINATOR     = 

OBJECT_NAME    = IDEFIX & ARIANE 42P R/B
OBJECT_ID      = 2002-021B
CENTER_NAME    = EARTH
REF_FRAME      = TEME
TIME_SYSTEM    = UTC
MEAN_ELEMENT_THEORY = SGP/SGP4

EPOCH          = 2025-12-30T19:59:48.608736
MEAN_MOTION    = 14.30966059
ECCENTRICITY   = .0012516
INCLINATION    = 98.5806
RA_OF_ASC_NODE = 299.2912
ARG_OF_PERICENTER = 34.4170
MEAN_ANOMALY   = 325.7821

EPHEMERIS_TYPE = 0
CLASSIFICATION_TYPE = U
NORAD_CAT_ID   = 27422
ELEMENT_SET_NO = 999
REV_AT_EPOCH   = 23417
BSTAR          = .25304E-3
MEAN_MOTION_DOT = .622E-5
MEAN_MOTION_DDOT = 0

CCSDS_OMM_VERS = 2.0
CREATION_DATE  = 
ORIGINATOR     = 

OBJECT_NAME    = AQUA
OBJECT_ID      = 2002-022A
CENTER_NAME    = EARTH
REF_FRAME      = TEME
TIME_SYSTEM    = UTC
MEAN_ELEMENT_THEORY = SGP/SGP4

EPOCH          = 2025-12-30T23:04:41.326752
MEAN_MOTION    = 14.61780362
ECCENTRICITY   = .0001917
INCLINATION    = 98.4061
RA_OF_ASC_NODE = 326.1389
ARG_OF_PERICENTER = 95.3187
MEAN_ANOMALY   = 305.7939

EPHEMERIS_TYPE = 0
CLASSIFICATION_TYPE = U
NORAD_CAT_ID   = 27424
ELEMENT_SET_NO = 999
REV_AT_EPOCH   = 25869
BSTAR          = .40088E-3
MEAN_MOTION_DOT = .1951E-4
MEAN_MOTION_DDOT = 0

CCSDS_OMM_VERS = 2.0
CREATION_DATE  = 
ORIGINATOR     = 

OBJECT_NAME    = CZ-4B R/B
OBJECT_ID      = 2002-024C
CENTER_NAME    = EARTH
REF_FRAME      = TEME
TIME_SYSTEM    = UTC
MEAN_ELEMENT_THEORY = SGP/SGP4

EPOCH          = 2025-12-31T02:32:24.431712
MEAN_MOTION    = 14.14532270
ECCENTRICITY   = .004962
INCLINATION    = 98.8972
RA_OF_ASC_NODE = 53.8111
ARG_OF_PERICENTER = 216.9578
MEAN_ANOMALY   = 197.1007

EPHEMERIS_TYPE = 0
CLASSIFICATION_TYPE = U
NORAD_CAT_ID   = 27432
ELEMENT_SET_NO = 999
REV_AT_EPOCH   = 21954
BSTAR          = .89292E-4
MEAN_MOTION_DOT = .129E-5
MEAN_MOTION_DDOT = 0

CCSDS_OMM_VERS = 2.0
CREATION_DATE  = 
ORIGINATOR     = 

OBJECT_NAME    = MIDORI II (ADEOS-II)
OBJECT_ID      = 2002-056A
CENTER_NAME    = EARTH
REF_FRAME      = TEME
TIME_SYSTEM    = UTC
MEAN_ELEMENT_THEORY = SGP/SGP4

EPOCH          = 2025-12-31T03:03:44.995104
MEAN_MOTION    = 14.29221529
ECCENTRICITY   = .0001105
INCLINATION    = 98.7661
RA_OF_ASC_NODE = 318.1828
ARG_OF_PERICENTER = 139.6211
MEAN_ANOMALY   = 220.5053

EPHEMERIS_TYPE = 0
CLASSIFICATION_TYPE = U
NORAD_CAT_ID   = 27597
ELEMENT_SET_NO = 999
REV_AT_EPOCH   = 20050
BSTAR          = .27082E-3
MEAN_MOTION_DOT = .643E-5
MEAN_MOTION_DDOT = 0

CCSDS_OMM_VERS = 2.0
CREATION_DATE  = 
ORIGINATOR     = 

OBJECT_NAME    = H-2A R/B
OBJECT_ID      = 2002-056E
CENTER_NAME    = EARTH
REF_FRAME      = TEME
TIME_SYSTEM    = UTC
MEAN_ELEMENT_THEORY = SGP/SGP4

EPOCH          = 2025-12-30T21:29:43.416960
MEAN_MOTION    = 14.33695501
ECCENTRICITY   = .0070551
INCLINATION    = 98.3089
RA_OF_ASC_NODE = 322.9320
ARG_OF_PERICENTER = 7.5973
MEAN_ANOMALY   = 51.5571

EPHEMERIS_TYPE = 0
CLASSIFICATION_TYPE = U
NORAD_CAT_ID   = 27601
ELEMENT_SET_NO = 999
REV_AT_EPOCH   = 20425
BSTAR          = .29186E-3
MEAN_MOTION_DOT = .791E-5
MEAN_MOTION_DDOT = 0

CCSDS_OMM_VERS = 2.0
CREATION_DATE  = 
ORIGINATOR     = 

OBJECT_NAME    = CZ-4B R/B
OBJECT_ID      = 2003-049C
CENTER_NAME    = EARTH
REF_FRAME      = TEME
TIME_SYSTEM    = UTC
MEAN_ELEMENT_THEORY = SGP/SGP4

EPOCH          = 2025-12-30T22:59:22.600608
MEAN_MOTION    = 14.54930185
ECCENTRICITY   = .0049346
INCLINATION    = 98.6802
RA_OF_ASC_NODE = 352.2113
ARG_OF_PERICENTER = 81.6302
MEAN_ANOMALY   = 279.0484

EPHEMERIS_TYPE = 0
CLASSIFICATION_TYPE = U
NORAD_CAT_ID   = 28059
ELEMENT_SET_NO = 999
REV_AT_EPOCH   = 17660
BSTAR          = .20599E-3
MEAN_MOTION_DOT = .849E-5
MEAN_MOTION_DDOT = 0

CCSDS_OMM_VERS = 2.0
CREATION_DATE  = 
ORIGINATOR     = 

OBJECT_NAME    = CZ-2C R/B
OBJECT_ID      = 2004-012C
CENTER_NAME    = EARTH
REF_FRAME      = TEME
TIME_SYSTEM    = UTC
MEAN_ELEMENT_THEORY = SGP/SGP4

EPOCH          = 2025-12-31T03:06:27.241344
MEAN_MOTION    = 15.57045475
ECCENTRICITY   = .0016708
INCLINATION    = 97.7393
RA_OF_ASC_NODE = 59.2865
ARG_OF_PERICENTER = 199.4117
MEAN_ANOMALY   = 160.6503

EPHEMERIS_TYPE = 0
CLASSIFICATION_TYPE = U
NORAD_CAT_ID   = 28222
ELEMENT_SET_NO = 999
REV_AT_EPOCH   = 19358
BSTAR          = .84458E-3
MEAN_MOTION_DOT = .61696E-3
MEAN_MOTION_DDOT = 0

CCSDS_OMM_VERS = 2.0
CREATION_DATE  = 
ORIGINATOR     = 

OBJECT_NAME    = SL-16 R/B
OBJECT_ID      = 2004-021B
CENTER_NAME    = EARTH
REF_FRAME      = TEME
TIME_SYSTEM    = UTC
MEAN_ELEMENT_THEORY = SGP/SGP4

EPOCH          = 2025-12-31T03:33:46.263168
MEAN_MOTION    = 14.14584077
ECCENTRICITY   = .0004241
INCLINATION    = 71.0009
RA_OF_ASC_NODE = 16.3324
ARG_OF_PERICENTER = 168.9386
MEAN_ANOMALY   = 191.1830

EPHEMERIS_TYPE = 0
CLASSIFICATION_TYPE = U
NORAD_CAT_ID   = 28353
ELEMENT_SET_NO = 999
REV_AT_EPOCH   = 11314
BSTAR          = .2431E-3
MEAN_MOTION_DOT = .419E-5
MEAN_MOTION_DDOT = 0

CCSDS_OMM_VERS = 2.0
CREATION_DATE  = 
ORIGINATOR     = 

OBJECT_NAME    = CZ-4B R/B
OBJECT_ID      = 2004-035C
CENTER_NAME    = EARTH
REF_FRAME      = TEME
TIME_SYSTEM    = UTC
MEAN_ELEMENT_THEORY = SGP/SGP4

EPOCH          = 2025-12-31T02:24:08.526816
MEAN_MOTION    = 15.27709098
ECCENTRICITY   = .0032171
INCLINATION    = 97.3593
RA_OF_ASC_NODE = 35.2013
ARG_OF_PERICENTER = 209.3657
MEAN_ANOMALY   = 150.5776

EPHEMERIS_TYPE = 0
CLASSIFICATION_TYPE = U
NORAD_CAT_ID   = 28415
ELEMENT_SET_NO = 999
REV_AT_EPOCH   = 16943
BSTAR          = .54182E-3
MEAN_MOTION_DOT = .14833E-3
MEAN_MOTION_DDOT = 0

CCSDS_OMM_VERS = 2.0
CREATION_DATE  = 
ORIGINATOR     = 

OBJECT_NAME    = CZ-2C R/B
OBJECT_ID      = 2004-046B
CENTER_NAME    = EARTH
REF_FRAME      = TEME
TIME_SYSTEM    = UTC
MEAN_ELEMENT_THEORY = SGP/SGP4

EPOCH          = 2025-12-30T18:27:39.904704
MEAN_MOTION    = 14.26954016
ECCENTRICITY   = .01395474
INCLINATION    = 98.1998
RA_OF_ASC_NODE = 279.0277
ARG_OF_PERICENTER = 359.1967
MEAN_ANOMALY   = 0.8970

EPHEMERIS_TYPE = 0
CLASSIFICATION_TYPE = U
NORAD_CAT_ID   = 28480
ELEMENT_SET_NO = 999
REV_AT_EPOCH   = 9867
BSTAR          = .21126265E-3
MEAN_MOTION_DOT = .528E-5
MEAN_MOTION_DDOT = 0

CCSDS_OMM_VERS = 2.0
CREATION_DATE  = 
ORIGINATOR     = 

OBJECT_NAME    = ARIANE 5 R/B
OBJECT_ID      = 2004-049H
CENTER_NAME    = EARTH
REF_FRAME      = TEME
TIME_SYSTEM    = UTC
MEAN_ELEMENT_THEORY = SGP/SGP4

EPOCH          = 2025-12-31T01:07:56.548128
MEAN_MOTION    = 14.85069424
ECCENTRICITY   = .0083783
INCLINATION    = 98.2526
RA_OF_ASC_NODE = 165.9865
ARG_OF_PERICENTER = 212.8700
MEAN_ANOMALY   = 146.7288

EPHEMERIS_TYPE = 0
CLASSIFICATION_TYPE = U
NORAD_CAT_ID   = 28499
ELEMENT_SET_NO = 999
REV_AT_EPOCH   = 13560
BSTAR          = .28224E-3
MEAN_MOTION_DOT = .2503E-4
MEAN_MOTION_DDOT = 0

CCSDS_OMM_VERS = 2.0
CREATION_DATE  = 
ORIGINATOR     = 

OBJECT_NAME    = CZ-2D R/B
OBJECT_ID      = 2005-024B
CENTER_NAME    = EARTH
REF_FRAME      = TEME
TIME_SYSTEM    = UTC
MEAN_ELEMENT_THEORY = SGP/SGP4

EPOCH          = 2025-12-31T00:18:11.460096
MEAN_MOTION    = 15.54377637
ECCENTRICITY   = .0003084
INCLINATION    = 97.3623
RA_OF_ASC_NODE = 12.9524
ARG_OF_PERICENTER = 278.6684
MEAN_ANOMALY   = 81.4220

EPHEMERIS_TYPE = 0
CLASSIFICATION_TYPE = U
NORAD_CAT_ID   = 28738
ELEMENT_SET_NO = 999
REV_AT_EPOCH   = 12909
BSTAR          = .74955E-3
MEAN_MOTION_DOT = .4926E-3
MEAN_MOTION_DDOT = 0

